[{"OBJECT_NAME":"STARLINK-11364 [DTC]","OBJECT_ID":"2024-184M","EPOCH":"2026-03-09T16:24:18.980928","MEAN_MOTION":15.69689762,"ECCENTRICITY":8.002e-5,"INCLINATION":53.1599,"RA_OF_ASC_NODE":236.4907,"ARG_OF_PERICENTER":6.7564,"MEAN_ANOMALY":353.3465,"EPHEMERIS_TYPE":0,"CLASSIFICATION_TYPE":"U","NORAD_CAT_ID":61543,"ELEMENT_SET_NO":999,"REV_AT_EPOCH":8041,"BSTAR":-1.0830689e-5,"MEAN_MOTION_DOT":-1.899e-5,"MEAN_MOTION_DDOT":0},{"OBJECT_NAME":"FLOCK 4Q-17","OBJECT_ID":"2023-174AD","EPOCH":"2026-03-09T17:33:32.514048","MEAN_MOTION":15.67180586,"ECCENTRICITY":0.0003312,"INCLINATION":97.3815,"RA_OF_ASC_NODE":160.3254,"ARG_OF_PERICENTER":203.6939,"MEAN_ANOMALY":156.417,"EPHEMERIS_TYPE":0,"CLASSIFICATION_TYPE":"U","NORAD_CAT_ID":58283,"ELEMENT_SET_NO":999,"REV_AT_EPOCH":13057,"BSTAR":0.0017680138,"MEAN_MOTION_DOT":0.0019313,"MEAN_MOTION_DDOT":0}]
